{"type": "FeatureCollection", "features": [{"type": "Feature", "properties": {"norad_id": 28890, "name": "BEIJING 1", "group": "dmc", "lat": -40.83344253679614, "lon": -76.73675497537742, "alt_km": 684.9636722751429, "timestamp": "2025-12-08T23:34:03.636289+00:00", "meta": {"OBJECT_NAME": "BEIJING 1", "OBJECT_ID": "2005-043A", "EPOCH": "2025-12-08T14:21:19.951776", "MEAN_MOTION": 14.63360846, "ECCENTRICITY": 0.00151637, "INCLINATION": 98.2657, "RA_OF_ASC_NODE": 110.0956, "ARG_OF_PERICENTER": 153.8918, "MEAN_ANOMALY": 206.3051, "EPHEMERIS_TYPE": 0, "CLASSIFICATION_TYPE": "U", "NORAD_CAT_ID": 28890, "ELEMENT_SET_NO": 999, "REV_AT_EPOCH": 7277, "BSTAR": 0.00017844326, "MEAN_MOTION_DOT": 8.74e-06, "MEAN_MOTION_DDOT": 0}, "tle": {"line1": "1 28890U 05043A   25342.59814759  .00000874  00000+0  17844-3 0  9998", "line2": "2 28890  98.2657 110.0956 0015163 153.8918 206.3051 14.63360846 72770"}}, "geometry": {"type": "Point", "coordinates": [-76.73675497537742, -40.83344253679614]}}, {"type": "Feature", "properties": {"norad_id": 33320, "name": "HUANJING 1A (HJ-1A)", "group": "dmc", "lat": -21.927892735479915, "lon": -25.45954846329814, "alt_km": 618.7663973589097, "timestamp": "2025-12-08T23:34:03.636318+00:00", "meta": {"OBJECT_NAME": "HUANJING 1A (HJ-1A)", "OBJECT_ID": "2008-041A", "EPOCH": "2025-12-08T13:57:12.552192", "MEAN_MOTION": 14.83375356, "ECCENTRICITY": 0.00203905, "INCLINATION": 97.654, "RA_OF_ASC_NODE": 331.0533, "ARG_OF_PERICENTER": 47.5772, "MEAN_ANOMALY": 312.7164, "EPHEMERIS_TYPE": 0, "CLASSIFICATION_TYPE": "U", "NORAD_CAT_ID": 33320, "ELEMENT_SET_NO": 999, "REV_AT_EPOCH": 93014, "BSTAR": 0.00036895792, "MEAN_MOTION_DOT": 2.985e-05, "MEAN_MOTION_DDOT": 0}, "tle": {"line1": "1 33320U 08041A   25342.58139528  .00002985  00000+0  36896-3 0  9999", "line2": "2 33320  97.6540 331.0533 0020390  47.5772 312.7164 14.83375356930144"}}, "geometry": {"type": "Point", "coordinates": [-25.45954846329814, -21.927892735479915]}}, {"type": "Feature", "properties": {"norad_id": 33321, "name": "HUANJING 1B (HJ-1B)", "group": "dmc", "lat": -27.257865121023563, "lon": 151.17846225580524, "alt_km": 639.4718753978532, "timestamp": "2025-12-08T23:34:03.636333+00:00", "meta": {"OBJECT_NAME": "HUANJING 1B (HJ-1B)", "OBJECT_ID": "2008-041B", "EPOCH": "2025-12-08T14:32:27.904992", "MEAN_MOTION": 14.82805678, "ECCENTRICITY": 0.00382372, "INCLINATION": 97.6399, "RA_OF_ASC_NODE": 334.7845, "ARG_OF_PERICENTER": 88.9183, "MEAN_ANOMALY": 271.6412, "EPHEMERIS_TYPE": 0, "CLASSIFICATION_TYPE": "U", "NORAD_CAT_ID": 33321, "ELEMENT_SET_NO": 999, "REV_AT_EPOCH": 93016, "BSTAR": 0.00029707706, "MEAN_MOTION_DOT": 2.382e-05, "MEAN_MOTION_DDOT": 0}, "tle": {"line1": "1 33321U 08041B   25342.60587853  .00002382  00000+0  29708-3 0  9996", "line2": "2 33321  97.6399 334.7845 0038237  88.9183 271.6412 14.82805678930162"}}, "geometry": {"type": "Point", "coordinates": [151.17846225580524, -27.257865121023563]}}, {"type": "Feature", "properties": {"norad_id": 33446, "name": "YAOGAN-4", "group": "dmc", "lat": 58.48111804006441, "lon": 106.23471492271312, "alt_km": 623.2083083974376, "timestamp": "2025-12-08T23:34:03.636346+00:00", "meta": {"OBJECT_NAME": "YAOGAN-4", "OBJECT_ID": "2008-061A", "EPOCH": "2025-12-08T13:18:28.139040", "MEAN_MOTION": 14.8266295, "ECCENTRICITY": 0.00139333, "INCLINATION": 97.9177, "RA_OF_ASC_NODE": 272.6947, "ARG_OF_PERICENTER": 337.5968, "MEAN_ANOMALY": 22.4635, "EPHEMERIS_TYPE": 0, "CLASSIFICATION_TYPE": "U", "NORAD_CAT_ID": 33446, "ELEMENT_SET_NO": 999, "REV_AT_EPOCH": 91741, "BSTAR": 0.00037017674, "MEAN_MOTION_DOT": 2.935e-05, "MEAN_MOTION_DDOT": 0}, "tle": {"line1": "1 33446U 08061A   25342.55449235  .00002935  00000+0  37018-3 0  9998", "line2": "2 33446  97.9177 272.6947 0013933 337.5968  22.4635 14.82662950917416"}}, "geometry": {"type": "Point", "coordinates": [106.23471492271312, 58.48111804006441]}}, {"type": "Feature", "properties": {"norad_id": 35681, "name": "DEIMOS-1", "group": "dmc", "lat": -5.3997448779462, "lon": 144.49470761598326, "alt_km": 649.1050530626753, "timestamp": "2025-12-08T23:34:03.636357+00:00", "meta": {"OBJECT_NAME": "DEIMOS-1", "OBJECT_ID": "2009-041A", "EPOCH": "2025-12-08T13:49:23.841696", "MEAN_MOTION": 14.74943788, "ECCENTRICITY": 0.00027054, "INCLINATION": 97.7153, "RA_OF_ASC_NODE": 143.3735, "ARG_OF_PERICENTER": 88.4928, "MEAN_ANOMALY": 271.6592, "EPHEMERIS_TYPE": 0, "CLASSIFICATION_TYPE": "U", "NORAD_CAT_ID": 35681, "ELEMENT_SET_NO": 999, "REV_AT_EPOCH": 87878, "BSTAR": 0.00021527145, "MEAN_MOTION_DOT": 1.399e-05, "MEAN_MOTION_DDOT": 0}, "tle": {"line1": "1 35681U 09041A   25342.57597039  .00001399  00000+0  21527-3 0  9999", "line2": "2 35681  97.7153 143.3735 0002705  88.4928 271.6592 14.74943788878781"}}, "geometry": {"type": "Point", "coordinates": [144.49470761598326, -5.3997448779462]}}, {"type": "Feature", "properties": {"norad_id": 35683, "name": "UK-DMC 2", "group": "dmc", "lat": 0.569372014520563, "lon": 117.91245748073085, "alt_km": 646.314658493654, "timestamp": "2025-12-08T23:34:03.636368+00:00", "meta": {"OBJECT_NAME": "UK-DMC 2", "OBJECT_ID": "2009-041C", "EPOCH": "2025-12-08T15:25:40.467936", "MEAN_MOTION": 14.75609318, "ECCENTRICITY": 0.00013671, "INCLINATION": 97.8564, "RA_OF_ASC_NODE": 117.6616, "ARG_OF_PERICENTER": 101.3416, "MEAN_ANOMALY": 258.7948, "EPHEMERIS_TYPE": 0, "CLASSIFICATION_TYPE": "U", "NORAD_CAT_ID": 35683, "ELEMENT_SET_NO": 999, "REV_AT_EPOCH": 87846, "BSTAR": 0.00030450395, "MEAN_MOTION_DOT": 2.028e-05, "MEAN_MOTION_DDOT": 0}, "tle": {"line1": "1 35683U 09041C   25342.64282949  .00002028  00000+0  30450-3 0  9995", "line2": "2 35683  97.8564 117.6616 0001367 101.3416 258.7948 14.75609318878467"}}, "geometry": {"type": "Point", "coordinates": [117.91245748073085, 0.569372014520563]}}, {"type": "Feature", "properties": {"norad_id": 40715, "name": "DMC3-FM1", "group": "dmc", "lat": -79.60826157647637, "lon": -102.39132460668756, "alt_km": 617.7809141861435, "timestamp": "2025-12-08T23:34:03.636379+00:00", "meta": {"OBJECT_NAME": "DMC3-FM1", "OBJECT_ID": "2015-032A", "EPOCH": "2025-12-08T14:14:25.164384", "MEAN_MOTION": 14.85430334, "ECCENTRICITY": 0.00048921, "INCLINATION": 97.6702, "RA_OF_ASC_NODE": 209.9369, "ARG_OF_PERICENTER": 336.4844, "MEAN_ANOMALY": 23.6147, "EPHEMERIS_TYPE": 0, "CLASSIFICATION_TYPE": "U", "NORAD_CAT_ID": 40715, "ELEMENT_SET_NO": 999, "REV_AT_EPOCH": 56161, "BSTAR": 0.00018572545, "MEAN_MOTION_DOT": 1.549e-05, "MEAN_MOTION_DDOT": 0}, "tle": {"line1": "1 40715U 15032A   25342.59334681  .00001549  00000+0  18573-3 0  9998", "line2": "2 40715  97.6702 209.9369 0004892 336.4844  23.6147 14.85430334561610"}}, "geometry": {"type": "Point", "coordinates": [-102.39132460668756, -79.60826157647637]}}, {"type": "Feature", "properties": {"norad_id": 40716, "name": "DMC3-FM2", "group": "dmc", "lat": 22.828836963169817, "lon": 35.007100526055986, "alt_km": 615.7459956480361, "timestamp": "2025-12-08T23:34:03.636390+00:00", "meta": {"OBJECT_NAME": "DMC3-FM2", "OBJECT_ID": "2015-032B", "EPOCH": "2025-12-08T14:46:49.263744", "MEAN_MOTION": 14.8543175, "ECCENTRICITY": 0.00055261, "INCLINATION": 97.6759, "RA_OF_ASC_NODE": 211.3995, "ARG_OF_PERICENTER": 340.8667, "MEAN_ANOMALY": 19.234, "EPHEMERIS_TYPE": 0, "CLASSIFICATION_TYPE": "U", "NORAD_CAT_ID": 40716, "ELEMENT_SET_NO": 999, "REV_AT_EPOCH": 56161, "BSTAR": 0.00019062353, "MEAN_MOTION_DOT": 1.591e-05, "MEAN_MOTION_DDOT": 0}, "tle": {"line1": "1 40716U 15032B   25342.61584796  .00001591  00000+0  19062-3 0  9997", "line2": "2 40716  97.6759 211.3995 0005526 340.8667  19.2340 14.85431750561611"}}, "geometry": {"type": "Point", "coordinates": [35.007100526055986, 22.828836963169817]}}, {"type": "Feature", "properties": {"norad_id": 40717, "name": "DMC3-FM3", "group": "dmc", "lat": 40.93610234005703, "lon": -153.33936933484753, "alt_km": 607.3124472167447, "timestamp": "2025-12-08T23:34:03.636401+00:00", "meta": {"OBJECT_NAME": "DMC3-FM3", "OBJECT_ID": "2015-032C", "EPOCH": "2025-12-08T15:17:55.085568", "MEAN_MOTION": 14.85422376, "ECCENTRICITY": 0.00048848, "INCLINATION": 97.6814, "RA_OF_ASC_NODE": 213.0507, "ARG_OF_PERICENTER": 342.9928, "MEAN_ANOMALY": 17.1123, "EPHEMERIS_TYPE": 0, "CLASSIFICATION_TYPE": "U", "NORAD_CAT_ID": 40717, "ELEMENT_SET_NO": 999, "REV_AT_EPOCH": 56162, "BSTAR": 0.00015706405, "MEAN_MOTION_DOT": 1.302e-05, "MEAN_MOTION_DDOT": 0}, "tle": {"line1": "1 40717U 15032C   25342.63744312  .00001302  00000+0  15706-3 0  9993", "line2": "2 40717  97.6814 213.0507 0004884 342.9928  17.1123 14.85422376561622"}}, "geometry": {"type": "Point", "coordinates": [-153.33936933484753, 40.93610234005703]}}]}